SAR-LUPE 2              
1 31797U 07030A   26193.23491014  .00018090  00000+0  28624-3 0  9994
2 31797  98.1057 300.8489 0004650 213.3571 146.7387 15.53512854 60829
SAPPHIRE                
1 39088U 13009C   26193.18947720  .00000053  00000+0  33582-4 0  9992
2 39088  98.4271  12.0529 0011399 168.5881 191.5565 14.35247073700162
PRAETORIAN SDA_602      
1 65565U 25203A   26192.82027447  .00000040  00000+0  25584-4 0  9994
2 65565  81.3040 347.9597 0006988 125.3833 234.7977 13.83887769 42101
PRAETORIAN SDA_603      
1 65566U 25203B   26192.84873911  .00000138  00000+0  11358-3 0  9993
2 65566  81.3045 347.8559 0010499 123.1165 237.1000 13.83963801 42117
PRAETORIAN SDA_604      
1 65567U 25203C   26192.81175733  .00000042  00000+0  27421-4 0  9991
2 65567  81.3062 348.3399 0006479 129.0357 231.1377 13.83049953 42086
PRAETORIAN SDA_605      
1 65568U 25203D   26192.84414843  .00000017  00000+0  44914-5 0  9992
2 65568  81.3027 347.9527 0009249 121.2254 238.9810 13.83199724 42106
PRAETORIAN SDA_606      
1 65569U 25203E   26192.82932231  .00000041  00000+0  26427-4 0  9992
2 65569  81.3064 348.2032 0007089 123.7842 236.3990 13.83199955 42098
PRAETORIAN SDA_607      
1 65570U 25203F   26192.82103710  .00000140  00000+0  11539-3 0  9993
2 65570  81.3040 347.8345 0009635 123.1417 237.0665 13.83760448 42118
PRAETORIAN SDA_608      
1 65571U 25203G   26192.80371083  .00000046  00000+0  30661-4 0  9995
2 65571  81.3017 348.0158 0006974 128.0627 232.1160 13.83819276 42095
PRAETORIAN SDA_609      
1 65572U 25203H   26192.87393178  .00000195  00000+0  16438-3 0  9992
2 65572  81.3056 347.9294 0007752 122.7407 237.4497 13.84211733 42119
PRAETORIAN SDA_610      
1 65573U 25203J   26189.89209177  .00000045  00000+0  29958-4 0  9992
2 65573  81.3015 350.6711 0007648 134.1093 226.0694 13.83769338 41695
PRAETORIAN SDA_611      
1 65574U 25203K   26192.86560128 -.00000021  00000+0 -30277-4 0  9992
2 65574  81.3013 348.1003 0006050 127.9974 232.1730 13.83311750 42099
PRAETORIAN SDA_612      
1 65575U 25203L   26192.82442058  .00000169  00000+0  13903-3 0  9997
2 65575  81.3037 347.6664 0010212 123.6138 236.5995 13.85040913 42120
PRAETORIAN SDA_613      
1 65576U 25203M   26192.80968594  .00000042  00000+0  27844-4 0  9994
2 65576  81.3009 348.1693 0006694 122.6033 237.5770 13.82767452 42088
PRAETORIAN SDA_614      
1 65577U 25203N   26192.89050447  .00000036  00000+0  21522-4 0  9993
2 65577  81.3023 347.6879 0008159 120.9284 239.2676 13.84778472 42138
PRAETORIAN SDA_615      
1 65578U 25203P   26192.87347063  .00000194  00000+0  16248-3 0  9998
2 65578  81.3040 347.6836 0010308 122.2715 237.9442 13.84436757 42126
PRAETORIAN SDA_616      
1 65579U 25203Q   26192.86555054  .00000060  00000+0  43988-4 0  9993
2 65579  81.3076 348.2637 0006457 129.4146 230.7583 13.83269890 42093
PRAETORIAN SDA_617      
1 65580U 25203R   26192.81692301  .00000044  00000+0  28870-4 0  9992
2 65580  81.3047 348.1370 0008416 121.5534 238.6445 13.83151889 42099
PRAETORIAN SDA_618      
1 65581U 25203S   26192.84030580  .00000133  00000+0  10870-3 0  9990
2 65581  81.3034 347.6449 0010800 125.7348 234.4815 13.84226270 42123
PRAETORIAN SDA_619      
1 65582U 25203T   26192.81439509  .00000140  00000+0  11577-3 0  9995
2 65582  81.3052 347.9950 0009167 122.8589 237.3451 13.83806144 42731
PRAETORIAN SDA_620      
1 65583U 25203U   26192.84803261  .00000153  00000+0  12872-3 0  9992
2 65583  81.3041 347.9928 0008512 119.6403 240.5602 13.83207416 42109
PRAETORIAN SDA_621      
1 65584U 25203V   26192.81622816  .00000037  00000+0  22189-4 0  9999
2 65584  81.3030 347.9255 0008442 116.7767 243.4254 13.83803677 42100
PRAETORIAN SDA_601      
1 65585U 25203W   26192.87047003  .00000048  00000+0  33013-4 0  9995
2 65585  81.3042 348.2001 0006453 132.5228 227.6474 13.83170313 42095
VICTUS HAZE PUMA        
1 69646U 26142A   26193.15288699  .00002213  00000+0  10269-3 0  9993
2 69646  97.4474  90.4917 0025063 277.2116  82.6270 15.20835042  3468
